[{"OBJECT_NAME":"YAOGAN-30 09C","OBJECT_ID":"2021-039C","EPOCH":"2026-03-09T23:18:27.367776","MEAN_MOTION":15.02221245,"ECCENTRICITY":0.00033191,"INCLINATION":34.9945,"RA_OF_ASC_NODE":275.1705,"ARG_OF_PERICENTER":299.331,"MEAN_ANOMALY":60.7067,"EPHEMERIS_TYPE":0,"CLASSIFICATION_TYPE":"U","NORAD_CAT_ID":48425,"ELEMENT_SET_NO":999,"REV_AT_EPOCH":26462,"BSTAR":0.00027769734,"MEAN_MOTION_DOT":3.708e-5,"MEAN_MOTION_DDOT":0},{"OBJECT_NAME":"STARLINK-30487","OBJECT_ID":"2023-147M","EPOCH":"2026-03-09T01:08:00.996864","MEAN_MOTION":15.02542965,"ECCENTRICITY":4.95e-6,"INCLINATION":43.0054,"RA_OF_ASC_NODE":329.332,"ARG_OF_PERICENTER":222.8366,"MEAN_ANOMALY":137.2472,"EPHEMERIS_TYPE":0,"CLASSIFICATION_TYPE":"U","NORAD_CAT_ID":57924,"ELEMENT_SET_NO":999,"REV_AT_EPOCH":13652,"BSTAR":8.0172178e-5,"MEAN_MOTION_DOT":8.8e-6,"MEAN_MOTION_DDOT":0}]
